GLOBALSTAR M024         
1 25883U 99043A   24365.84940359  .00000005  00000+0  24759-2 0  9996
2 25883  52.0044  40.4505 0001832 171.6908 359.4407 11.10164913 96168
GLOBALSTAR M027         
1 25884U 99043B   24365.69031764 -.00000136  00000+0 -27542-2 0  9991
2 25884  52.0203 114.0163 0021888  81.0779 279.2491 11.04370520122626
GLOBALSTAR M054         
1 25885U 99043C   24366.47745573  .00000085  00000+0  39731-2 0  9993
2 25885  52.0138 267.7115 0005033 254.2513 277.3430 11.39213571100269
GLOBALSTAR M053         
1 25886U 99043D   24365.81873034 -.00000041  00000+0  79520-3 0  9999
2 25886  51.9945 207.0404 0004065 135.8626 237.4798 11.27662178100458
GLOBALSTAR M058         
1 25907U 99049A   24365.84617963 -.00000064  00000+0  28070-3 0  9998
2 25907  51.9908 198.6886 0001319 359.1458   0.9374 11.93191325521446
GLOBALSTAR M050         
1 25908U 99049B   24366.35956885  .00000046  00000+0  15109-2 0  9992
2 25908  51.9965 217.5323 0010300  59.8662 111.1732 12.07447540132640
GLOBALSTAR M033         
1 25909U 99049C   24366.43535669 -.00000107  00000+0 -14650-3 0  9996
2 25909  51.9912 100.7410 0012139 276.1494  83.7970 12.20294307147989
GLOBALSTAR M055         
1 25910U 99049D   24366.45212730 -.00000084  00000+0  85703-4 0  9992
2 25910  52.0011 119.6069 0007969 140.5119 219.6314 12.29417946147870
